{
  "type": "FeatureCollection",
  "features": [
    {
      "type": "Feature",
      "properties": {
        "norad_id": 30572,
        "name": "FENGYUN 1C DEB",
        "group": "fengyun-1c-debris",
        "lat": 24.126191161638406,
        "lon": -152.21726022486683,
        "alt_km": 868.9509458991979,
        "timestamp": "2025-12-20T09:36:01.922794+00:00",
        "meta_object_name": "FENGYUN 1C DEB",
        "meta_object_id": "1999-025ALN",
        "meta_epoch": "2025-12-19T00:46:03.889344",
        "meta_mean_motion": 14.0892732,
        "meta_eccentricity": 0.00210351,
        "meta_inclination": 98.7714,
        "meta_ra_of_asc_node": 22.4865,
        "meta_arg_of_pericenter": 275.0193,
        "meta_mean_anomaly": 145.6726,
        "meta_ephemeris_type": 0,
        "meta_classification_type": "U",
        "meta_norad_cat_id": 30572,
        "meta_element_set_no": 999,
        "meta_rev_at_epoch": 96850,
        "meta_bstar": 0.00029486431,
        "meta_mean_motion_dot": 4.68e-06,
        "meta_mean_motion_ddot": 0,
        "tle_line1": "1 30572U 99025ALN 25353.03198946  .00000468  00000+0  29486-3 0  9999",
        "tle_line2": "2 30572  98.7714  22.4865 0021035 275.0193 145.6726 14.08927320968505"
      },
      "geometry": {
        "type": "Point",
        "coordinates": [
          -152.21726022486683,
          24.126191161638406
        ]
      }
    },
    {
      "type": "Feature",
      "properties": {
        "norad_id": 30573,
        "name": "FENGYUN 1C DEB",
        "group": "fengyun-1c-debris",
        "lat": -40.240826257972024,
        "lon": -155.52601274361703,
        "alt_km": 797.7970320819695,
        "timestamp": "2025-12-20T09:36:01.922804+00:00",
        "meta_object_name": "FENGYUN 1C DEB",
        "meta_object_id": "1999-025ALP",
        "meta_epoch": "2025-12-18T14:49:05.699712",
        "meta_mean_motion": 14.138776,
        "meta_eccentricity": 0.00885655,
        "meta_inclination": 99.2264,
        "meta_ra_of_asc_node": 30.5414,
        "meta_arg_of_pericenter": 257.2102,
        "meta_mean_anomaly": 255.7376,
        "meta_ephemeris_type": 0,
        "meta_classification_type": "U",
        "meta_norad_cat_id": 30573,
        "meta_element_set_no": 999,
        "meta_rev_at_epoch": 96280,
        "meta_bstar": 0.0013839301,
        "meta_mean_motion_dot": 2.676e-05,
        "meta_mean_motion_ddot": 0,
        "tle_line1": "1 30573U 99025ALP 25352.61742708  .00002676  00000+0  13839-2 0  9991",
        "tle_line2": "2 30573  99.2264  30.5414 0088565 257.2102 255.7376 14.13877600962807"
      },
      "geometry": {
        "type": "Point",
        "coordinates": [
          -155.52601274361703,
          -40.240826257972024
        ]
      }
    },
    {
      "type": "Feature",
      "properties": {
        "norad_id": 30574,
        "name": "FENGYUN 1C DEB",
        "group": "fengyun-1c-debris",
        "lat": -50.49451427152402,
        "lon": -33.62875958996762,
        "alt_km": 992.4687866511103,
        "timestamp": "2025-12-20T09:36:01.922814+00:00",
        "meta_object_name": "FENGYUN 1C DEB",
        "meta_object_id": "1999-025ALQ",
        "meta_epoch": "2025-12-16T10:20:02.300352",
        "meta_mean_motion": 13.77540272,
        "meta_eccentricity": 0.02195385,
        "meta_inclination": 99.3019,
        "meta_ra_of_asc_node": 153.9483,
        "meta_arg_of_pericenter": 337.7191,
        "meta_mean_anomaly": 21.4533,
        "meta_ephemeris_type": 0,
        "meta_classification_type": "U",
        "meta_norad_cat_id": 30574,
        "meta_element_set_no": 999,
        "meta_rev_at_epoch": 93819,
        "meta_bstar": 0.0019113578,
        "meta_mean_motion_dot": 2.231e-05,
        "meta_mean_motion_ddot": 0,
        "tle_line1": "1 30574U 99025ALQ 25350.43058218  .00002231  00000+0  19114-2 0  9995",
        "tle_line2": "2 30574  99.3019 153.9483 0219538 337.7191  21.4533 13.77540272938190"
      },
      "geometry": {
        "type": "Point",
        "coordinates": [
          -33.62875958996762,
          -50.49451427152402
        ]
      }
    },
    {
      "type": "Feature",
      "properties": {
        "norad_id": 30575,
        "name": "FENGYUN 1C DEB",
        "group": "fengyun-1c-debris",
        "lat": -64.57376325342044,
        "lon": 105.72123853308409,
        "alt_km": 758.2359712977341,
        "timestamp": "2025-12-20T09:36:01.922824+00:00",
        "meta_object_name": "FENGYUN 1C DEB",
        "meta_object_id": "1999-025ALR",
        "meta_epoch": "2025-12-18T18:28:53.248800",
        "meta_mean_motion": 14.40098479,
        "meta_eccentricity": 0.00543968,
        "meta_inclination": 99.1699,
        "meta_ra_of_asc_node": 84.1134,
        "meta_arg_of_pericenter": 218.8578,
        "meta_mean_anomaly": 268.8611,
        "meta_ephemeris_type": 0,
        "meta_classification_type": "U",
        "meta_norad_cat_id": 30575,
        "meta_element_set_no": 999,
        "meta_rev_at_epoch": 98304,
        "meta_bstar": 0.00074517683,
        "meta_mean_motion_dot": 2.343e-05,
        "meta_mean_motion_ddot": 0,
        "tle_line1": "1 30575U 99025ALR 25352.77006075  .00002343  00000+0  74518-3 0  9993",
        "tle_line2": "2 30575  99.1699  84.1134 0054396 218.8578 268.8611 14.40098479983044"
      },
      "geometry": {
        "type": "Point",
        "coordinates": [
          105.72123853308409,
          -64.57376325342044
        ]
      }
    },
    {
      "type": "Feature",
      "properties": {
        "norad_id": 30577,
        "name": "FENGYUN 1C DEB",
        "group": "fengyun-1c-debris",
        "lat": -80.96230476141373,
        "lon": 132.1040188639693,
        "alt_km": 842.1457566569816,
        "timestamp": "2025-12-20T09:36:01.922834+00:00",
        "meta_object_name": "FENGYUN 1C DEB",
        "meta_object_id": "1999-025ALT",
        "meta_epoch": "2025-12-19T01:49:57.097056",
        "meta_mean_motion": 14.11155186,
        "meta_eccentricity": 0.00287405,
        "meta_inclination": 98.7698,
        "meta_ra_of_asc_node": 26.8589,
        "meta_arg_of_pericenter": 263.6755,
        "meta_mean_anomaly": 123.4121,
        "meta_ephemeris_type": 0,
        "meta_classification_type": "U",
        "meta_norad_cat_id": 30577,
        "meta_element_set_no": 999,
        "meta_rev_at_epoch": 96874,
        "meta_bstar": 0.00039029254,
        "meta_mean_motion_dot": 6.63e-06,
        "meta_mean_motion_ddot": 0,
        "tle_line1": "1 30577U 99025ALT 25353.07635529  .00000663  00000+0  39029-3 0  9992",
        "tle_line2": "2 30577  98.7698  26.8589 0028740 263.6755 123.4121 14.11155186968745"
      },
      "geometry": {
        "type": "Point",
        "coordinates": [
          132.1040188639693,
          -80.96230476141373
        ]
      }
    },
    {
      "type": "Feature",
      "properties": {
        "norad_id": 30579,
        "name": "FENGYUN 1C DEB",
        "group": "fengyun-1c-debris",
        "lat": -48.69450108076419,
        "lon": 29.015249762393385,
        "alt_km": 908.2474239782341,
        "timestamp": "2025-12-20T09:36:01.922844+00:00",
        "meta_object_name": "FENGYUN 1C DEB",
        "meta_object_id": "1999-025ALV",
        "meta_epoch": "2025-12-18T08:21:16.566624",
        "meta_mean_motion": 14.05258046,
        "meta_eccentricity": 0.00536895,
        "meta_inclination": 98.8067,
        "meta_ra_of_asc_node": 16.861,
        "meta_arg_of_pericenter": 88.0752,
        "meta_mean_anomaly": 288.2452,
        "meta_ephemeris_type": 0,
        "meta_classification_type": "U",
        "meta_norad_cat_id": 30579,
        "meta_element_set_no": 999,
        "meta_rev_at_epoch": 96536,
        "meta_bstar": 0.00031134319,
        "meta_mean_motion_dot": 4.68e-06,
        "meta_mean_motion_ddot": 0,
        "tle_line1": "1 30579U 99025ALV 25352.34810841  .00000468  00000+0  31134-3 0  9997",
        "tle_line2": "2 30579  98.8067  16.8610 0053689  88.0752 288.2452 14.05258046965362"
      },
      "geometry": {
        "type": "Point",
        "coordinates": [
          29.015249762393385,
          -48.69450108076419
        ]
      }
    },
    {
      "type": "Feature",
      "properties": {
        "norad_id": 30594,
        "name": "FENGYUN 1C DEB",
        "group": "fengyun-1c-debris",
        "lat": -18.52077531931872,
        "lon": 27.71776720125201,
        "alt_km": 851.1392760090203,
        "timestamp": "2025-12-20T09:36:01.922854+00:00",
        "meta_object_name": "FENGYUN 1C DEB",
        "meta_object_id": "1999-025ALZ",
        "meta_epoch": "2025-12-18T00:44:12.662304",
        "meta_mean_motion": 14.17345425,
        "meta_eccentricity": 0.01932042,
        "meta_inclination": 99.1508,
        "meta_ra_of_asc_node": 208.3733,
        "meta_arg_of_pericenter": 301.333,
        "meta_mean_anomaly": 56.9059,
        "meta_ephemeris_type": 0,
        "meta_classification_type": "U",
        "meta_norad_cat_id": 30594,
        "meta_element_set_no": 999,
        "meta_rev_at_epoch": 97654,
        "meta_bstar": 0.00015586858,
        "meta_mean_motion_dot": 3.28e-06,
        "meta_mean_motion_ddot": 0,
        "tle_line1": "1 30594U 99025ALZ 25352.03070211  .00000328  00000+0  15587-3 0  9998",
        "tle_line2": "2 30594  99.1508 208.3733 0193204 301.3330  56.9059 14.17345425976544"
      },
      "geometry": {
        "type": "Point",
        "coordinates": [
          27.71776720125201,
          -18.52077531931872
        ]
      }
    }
  ]
}